[
  {
    "id": 1,
    "slug": "perpendicular-bisector",
    "parent_id": 3,
    "filename": "perpendicularBisector",
    "name_en": "Perpendicular Bisector",
    "name_fi": "Keskinormaali"
  },
  {
    "id": 2,
    "slug": "angle-classification",
    "parent_id": 4,
    "filename": "angleClassification",
    "name_en": "Angle Classification",
    "name_fi": "Kulmien luokittelu"
  },
  {
    "id": 3,
    "slug": "angle-bisector",
    "parent_id": 4,
    "filename": "angleBisector",
    "name_en": "Angle Bisector",
    "name_fi": "Kulman puolittaja"
  },
  {
    "id": 4,
    "slug": "sum-of-angles",
    "parent_id": 4,
    "filename": "sumOfAngles",
    "name_en": "Sum of Angles",
    "name_fi": "Kulmien summa"
  },
  {
    "id": 5,
    "slug": "complementary-angles",
    "parent_id": 4,
    "filename": "complementaryAngles",
    "name_en": "Complementary Angles",
    "name_fi": "Komplementtikulmat"
  },
  {
    "id": 6,
    "slug": "supplementary-angles",
    "parent_id": 4,
    "filename": "supplementaryAngles",
    "name_en": "Supplementary Angles",
    "name_fi": "Suplementtikulmat"
  },
  {
    "id": 7,
    "slug": "explementary-angles",
    "parent_id": 4,
    "filename": "explementaryAngles",
    "name_en": "Explementary Angles",
    "name_fi": "Eksplementtikulmat"
  },
  {
    "id": 8,
    "slug": "corresponding-angles",
    "parent_id": 4,
    "filename": "correspondingAngles",
    "name_en": "Corresponding Angles",
    "name_fi": "Samankohtaiset kulmat"
  },
  {
    "id": 9,
    "slug": "corresponding-angles-2",
    "parent_id": 4,
    "filename": "correspondingAngles2",
    "name_en": "Corresponding Angles (Parallel Lines)",
    "name_fi": "Samankohtaiset kulmat 2"
  },
  {
    "id": 10,
    "slug": "point-projection",
    "parent_id": 5,
    "filename": "pointProjection",
    "name_en": "Projecting a Point on a Line",
    "name_fi": "Pisteen projektio suoralle"
  }
]
